{
  "type": "FeatureCollection",
  "features": [
    {
      "type": "Feature",
      "properties": {
        "norad_id": 66347,
        "name": "STARLINK-35438",
        "group": "last-30-days",
        "lat": -42.95414710841947,
        "lon": -64.40326415330779,
        "alt_km": 416.3472384876177,
        "timestamp": "2025-12-06T03:35:00.471639+00:00",
        "meta_object_name": "STARLINK-35438",
        "meta_object_id": "2025-253AE",
        "meta_epoch": "2025-12-05T04:46:32.982240",
        "meta_mean_motion": 15.50631575,
        "meta_eccentricity": 0.0001736,
        "meta_inclination": 43.0007,
        "meta_ra_of_asc_node": 28.7095,
        "meta_arg_of_pericenter": 268.9819,
        "meta_mean_anomaly": 91.0843,
        "meta_ephemeris_type": 0,
        "meta_classification_type": "U",
        "meta_norad_cat_id": 66347,
        "meta_element_set_no": 999,
        "meta_rev_at_epoch": 576,
        "meta_bstar": 0.002267896,
        "meta_mean_motion_dot": 0.00135282,
        "meta_mean_motion_ddot": 0,
        "tle_line1": "1 66347U 25253AE  25339.19899285  .00135282  00000+0  22679-2 0  9994",
        "tle_line2": "2 66347  43.0007  28.7095 0001736 268.9819  91.0843 15.50631575  5764"
      },
      "geometry": {
        "type": "Point",
        "coordinates": [
          -64.40326415330779,
          -42.95414710841947
        ]
      }
    },
    {
      "type": "Feature",
      "properties": {
        "norad_id": 66348,
        "name": "STARLINK-35849",
        "group": "last-30-days",
        "lat": 25.943873399817047,
        "lon": 106.72520993377516,
        "alt_km": 409.4173366361538,
        "timestamp": "2025-12-06T03:35:00.471653+00:00",
        "meta_object_name": "STARLINK-35849",
        "meta_object_id": "2025-254A",
        "meta_epoch": "2025-12-05T06:00:02.000160",
        "meta_mean_motion": 15.55250692,
        "meta_eccentricity": 0.00014736,
        "meta_inclination": 53.1592,
        "meta_ra_of_asc_node": 312.4443,
        "meta_arg_of_pericenter": 78.5893,
        "meta_mean_anomaly": 76.8197,
        "meta_ephemeris_type": 0,
        "meta_classification_type": "U",
        "meta_norad_cat_id": 66348,
        "meta_element_set_no": 999,
        "meta_rev_at_epoch": 571,
        "meta_bstar": -0.034286765,
        "meta_mean_motion_dot": -0.02101434,
        "meta_mean_motion_ddot": 0,
        "tle_line1": "1 66348U 25254A   25339.25002315 -.02101434  00000+0 -34287-1 0  9996",
        "tle_line2": "2 66348  53.1592 312.4443 0001473  78.5893  76.8197 15.55250692  5711"
      },
      "geometry": {
        "type": "Point",
        "coordinates": [
          106.72520993377516,
          25.943873399817047
        ]
      }
    },
    {
      "type": "Feature",
      "properties": {
        "norad_id": 66349,
        "name": "STARLINK-35848",
        "group": "last-30-days",
        "lat": 24.506623205495384,
        "lon": 108.1284734601758,
        "alt_km": 409.66660626194425,
        "timestamp": "2025-12-06T03:35:00.471663+00:00",
        "meta_object_name": "STARLINK-35848",
        "meta_object_id": "2025-254B",
        "meta_epoch": "2025-12-05T06:00:02.000160",
        "meta_mean_motion": 15.55249664,
        "meta_eccentricity": 0.00015087,
        "meta_inclination": 53.1591,
        "meta_ra_of_asc_node": 312.44,
        "meta_arg_of_pericenter": 78.9605,
        "meta_mean_anomaly": 78.3662,
        "meta_ephemeris_type": 0,
        "meta_classification_type": "U",
        "meta_norad_cat_id": 66349,
        "meta_element_set_no": 999,
        "meta_rev_at_epoch": 571,
        "meta_bstar": -0.034270734,
        "meta_mean_motion_dot": -0.02100512,
        "meta_mean_motion_ddot": 0,
        "tle_line1": "1 66349U 25254B   25339.25002315 -.02100512  00000+0 -34271-1 0  9996",
        "tle_line2": "2 66349  53.1591 312.4400 0001508  78.9605  78.3662 15.55249664  5719"
      },
      "geometry": {
        "type": "Point",
        "coordinates": [
          108.1284734601758,
          24.506623205495384
        ]
      }
    },
    {
      "type": "Feature",
      "properties": {
        "norad_id": 66350,
        "name": "STARLINK-35829",
        "group": "last-30-days",
        "lat": 23.05029785229888,
        "lon": 109.50599144727413,
        "alt_km": 409.80502488595175,
        "timestamp": "2025-12-06T03:35:00.471674+00:00",
        "meta_object_name": "STARLINK-35829",
        "meta_object_id": "2025-254C",
        "meta_epoch": "2025-12-05T06:00:02.000160",
        "meta_mean_motion": 15.55248919,
        "meta_eccentricity": 0.00016458,
        "meta_inclination": 53.1593,
        "meta_ra_of_asc_node": 312.4358,
        "meta_arg_of_pericenter": 84.7683,
        "meta_mean_anomaly": 74.4711,
        "meta_ephemeris_type": 0,
        "meta_classification_type": "U",
        "meta_norad_cat_id": 66350,
        "meta_element_set_no": 999,
        "meta_rev_at_epoch": 571,
        "meta_bstar": -0.034187628,
        "meta_mean_motion_dot": -0.0209602,
        "meta_mean_motion_ddot": 0,
        "tle_line1": "1 66350U 25254C   25339.25002315 -.02096020  00000+0 -34188-1 0  9993",
        "tle_line2": "2 66350  53.1593 312.4358 0001645  84.7683  74.4711 15.55248919  5712"
      },
      "geometry": {
        "type": "Point",
        "coordinates": [
          109.50599144727413,
          23.05029785229888
        ]
      }
    },
    {
      "type": "Feature",
      "properties": {
        "norad_id": 66351,
        "name": "STARLINK-35828",
        "group": "last-30-days",
        "lat": 21.58871891272655,
        "lon": 110.84867840915243,
        "alt_km": 410.1837842865116,
        "timestamp": "2025-12-06T03:35:00.471685+00:00",
        "meta_object_name": "STARLINK-35828",
        "meta_object_id": "2025-254D",
        "meta_epoch": "2025-12-05T06:00:02.000160",
        "meta_mean_motion": 15.5524919,
        "meta_eccentricity": 0.00013646,
        "meta_inclination": 53.1593,
        "meta_ra_of_asc_node": 312.4325,
        "meta_arg_of_pericenter": 81.8991,
        "meta_mean_anomaly": 79.2573,
        "meta_ephemeris_type": 0,
        "meta_classification_type": "U",
        "meta_norad_cat_id": 66351,
        "meta_element_set_no": 999,
        "meta_rev_at_epoch": 569,
        "meta_bstar": -0.034172288,
        "meta_mean_motion_dot": -0.02095013,
        "meta_mean_motion_ddot": 0,
        "tle_line1": "1 66351U 25254D   25339.25002315 -.02095013  00000+0 -34172-1 0  9998",
        "tle_line2": "2 66351  53.1593 312.4325 0001364  81.8991  79.2573 15.55249190  5693"
      },
      "geometry": {
        "type": "Point",
        "coordinates": [
          110.84867840915243,
          21.58871891272655
        ]
      }
    },
    {
      "type": "Feature",
      "properties": {
        "norad_id": 66352,
        "name": "STARLINK-35850",
        "group": "last-30-days",
        "lat": 20.12272457075227,
        "lon": 112.15798932090587,
        "alt_km": 410.3446102523212,
        "timestamp": "2025-12-06T03:35:00.471696+00:00",
        "meta_object_name": "STARLINK-35850",
        "meta_object_id": "2025-254E",
        "meta_epoch": "2025-12-05T06:00:02.000160",
        "meta_mean_motion": 15.55250596,
        "meta_eccentricity": 0.00015294,
        "meta_inclination": 53.1594,
        "meta_ra_of_asc_node": 312.4282,
        "meta_arg_of_pericenter": 89.162,
        "meta_mean_anomaly": 73.9109,
        "meta_ephemeris_type": 0,
        "meta_classification_type": "U",
        "meta_norad_cat_id": 66352,
        "meta_element_set_no": 999,
        "meta_rev_at_epoch": 567,
        "meta_bstar": -0.034236801,
        "meta_mean_motion_dot": -0.0209874,
        "meta_mean_motion_ddot": 0,
        "tle_line1": "1 66352U 25254E   25339.25002315 -.02098740  00000+0 -34237-1 0  9991",
        "tle_line2": "2 66352  53.1594 312.4282 0001529  89.1620  73.9109 15.55250596  5676"
      },
      "geometry": {
        "type": "Point",
        "coordinates": [
          112.15798932090587,
          20.12272457075227
        ]
      }
    },
    {
      "type": "Feature",
      "properties": {
        "norad_id": 66353,
        "name": "STARLINK-35869",
        "group": "last-30-days",
        "lat": 18.631162732337643,
        "lon": 113.45641494460138,
        "alt_km": 410.69366896442807,
        "timestamp": "2025-12-06T03:35:00.471706+00:00",
        "meta_object_name": "STARLINK-35869",
        "meta_object_id": "2025-254F",
        "meta_epoch": "2025-12-05T06:00:02.000160",
        "meta_mean_motion": 15.55248154,
        "meta_eccentricity": 0.00013653,
        "meta_inclination": 53.1594,
        "meta_ra_of_asc_node": 312.4238,
        "meta_arg_of_pericenter": 82.5449,
        "meta_mean_anomaly": 82.4432,
        "meta_ephemeris_type": 0,
        "meta_classification_type": "U",
        "meta_norad_cat_id": 66353,
        "meta_element_set_no": 999,
        "meta_rev_at_epoch": 571,
        "meta_bstar": -0.034103991,
        "meta_mean_motion_dot": -0.02091214,
        "meta_mean_motion_ddot": 0,
        "tle_line1": "1 66353U 25254F   25339.25002315 -.02091214  00000+0 -34104-1 0  9994",
        "tle_line2": "2 66353  53.1594 312.4238 0001365  82.5449  82.4432 15.55248154  5718"
      },
      "geometry": {
        "type": "Point",
        "coordinates": [
          113.45641494460138,
          18.631162732337643
        ]
      }
    }
  ]
}